NORAD_CAT_ID,OBJECT_NAME,OBJECT_TYPE,EPOCH,MEAN_MOTION,ECCENTRICITY,INCLINATION,RA_OF_ASC_NODE,ARG_OF_PERICENTER,MEAN_ANOMALY,BSTAR,MEAN_MOTION_DOT,MEAN_MOTION_DDOT,TLE_LINE0,TLE_LINE1,TLE_LINE2,SEMIMAJOR_AXIS,PERIOD,APOGEE,PERIGEE,DECAYED
55272.0,STARLINK-5310,PAYLOAD,2024-07-19 11:15:09,14.9833853,0.0002634,70.0007,112.577,270.3846,89.7011,-6.1175e-06,-1.66e-06,0.0,0 STARLINK-5310,1 55272U 23010D   24201.46885737 -.00000166  00000-0 -61175-5 0  9994,2 55272  70.0007 112.5770 0002634 270.3846  89.7011 14.98338530 83185,6950.167,96.106,573.862,570.201,0.0
55272.0,STARLINK-5310,PAYLOAD,2024-07-19 22:28:05,14.98336943,0.0002644,70.0005,111.3986,270.0573,90.0283,0.00017376,1.981e-05,0.0,0 STARLINK-5310,1 55272U 23010D   24201.93617315  .00001981  00000-0  17376-3 0  9997,2 55272  70.0005 111.3986 0002644 270.0573  90.0283 14.98336943 83254,6950.171,96.107,573.874,570.199,0.0
55272.0,STARLINK-5310,PAYLOAD,2024-07-20 03:16:29,14.98336749,0.0002627,70.0004,110.8931,271.2974,88.7884,0.00020816,2.392e-05,0.0,0 STARLINK-5310,1 55272U 23010D   24202.13645185  .00002392  00000-0  20816-3 0  9996,2 55272  70.0004 110.8931 0002627 271.2974  88.7884 14.98336749 82979,6950.172,96.107,573.863,570.211,0.0
55272.0,STARLINK-5310,PAYLOAD,2024-07-20 11:17:12,14.98301594,0.0002482,70.0005,110.0516,273.6639,86.4236,-0.00023344,-2.875e-05,0.0,0 STARLINK-5310,1 55272U 23010D   24202.47028861 -.00002875  00000-0 -23344-3 0  9996,2 55272  70.0005 110.0516 0002482 273.6639  86.4236 14.98301594 83027,6950.281,96.109,573.871,570.421,0.0
55272.0,STARLINK-5310,PAYLOAD,2024-07-20 22:30:09,14.98301096,0.0002853,70.0007,108.8743,270.1988,89.8844,-0.00021126,-2.611e-05,0.0,0 STARLINK-5310,1 55272U 23010D   24202.93761461 -.00002611  00000-0 -21126-3 0  9991,2 55272  70.0007 108.8743 0002853 270.1988  89.8844 14.98301096 83408,6950.282,96.109,574.13,570.164,0.0
55272.0,STARLINK-5310,PAYLOAD,2024-07-21 03:18:32,14.98320176,0.0003038,70.0,108.3686,262.2509,97.8305,-6.4624e-05,-8.64e-06,0.0,0 STARLINK-5310,1 55272U 23010D   24203.13787996 -.00000864  00000-0 -64624-4 0  9994,2 55272  70.0000 108.3686 0003038 262.2509  97.8305 14.98320176 83129,6950.223,96.108,574.2,569.977,0.0
55272.0,STARLINK-5310,PAYLOAD,2024-07-21 20:56:00,14.98335699,0.000372,69.9987,106.5135,278.4013,81.6724,0.00011,1.22e-05,0.0,0 STARLINK-5310,1 55272U 23010D   24203.87222915  .00001220  00000-0  11000-3 0  9994,2 55272  69.9987 106.5135 0003720 278.4013  81.6724 14.98335699 83230,6950.175,96.107,574.626,569.455,0.0
55272.0,STARLINK-5310,PAYLOAD,2024-07-21 22:32:08,14.98342217,0.0003,70.0002,106.3482,268.5687,91.5128,0.00014093,1.589e-05,0.0,0 STARLINK-5310,1 55272U 23010D   24203.93898355  .00001589  00000-0  14093-3 0  9991,2 55272  70.0002 106.3482 0003000 268.5687  91.5128 14.98342217 83559,6950.155,96.106,574.105,569.935,0.0
55272.0,STARLINK-5310,PAYLOAD,2024-07-22 03:20:32,14.98347871,0.0002944,70.0016,105.8427,269.9445,90.1377,0.00053767,6.331e-05,0.0,0 STARLINK-5310,1 55272U 23010D   24204.13926606  .00006331  00000-0  53767-3 0  9996,2 55272  70.0016 105.8427 0002944 269.9445  90.1377 14.98347871 83271,6950.138,96.106,574.049,569.957,0.0
55272.0,STARLINK-5310,PAYLOAD,2024-07-22 22:34:08,14.98355185,0.0003187,70.0012,103.8241,267.4811,92.5984,0.00020366,2.339e-05,0.0,0 STARLINK-5310,1 55272U 23010D   24204.94037827  .00002339  00000-0  20366-3 0  9996,2 55272  70.0012 103.8241 0003187 267.4811  92.5984 14.98355185 83704,6950.115,96.105,574.195,569.765,0.0
55272.0,STARLINK-5310,PAYLOAD,2024-07-23 03:22:32,14.98366109,0.0003347,70.0016,103.3195,264.1769,95.9008,0.00068537,8.102e-05,0.0,0 STARLINK-5310,1 55272U 23010D   24205.14065390  .00008102  00000-0  68537-3 0  9991,2 55272  70.0016 103.3195 0003347 264.1769  95.9008 14.98366109 83426,6950.081,96.105,574.272,569.62,0.0
55272.0,STARLINK-5310,PAYLOAD,2024-07-23 16:11:37,14.98336741,0.000307,70.0023,101.9723,268.9112,91.1696,-0.00024638,-3.032e-05,0.0,0 STARLINK-5310,1 55272U 23010D   24205.67473886 -.00003032  00000-0 -24638-3 0  9995,2 55272  70.0023 101.9723 0003070 268.9112  91.1696 14.98336741 83501,6950.172,96.107,574.171,569.903,0.0
55272.0,STARLINK-5310,PAYLOAD,2024-07-23 22:36:09,14.98331901,0.0003232,70.0017,101.2982,266.5222,93.5568,-0.00026292,-3.229e-05,0.0,0 STARLINK-5310,1 55272U 23010D   24205.94178071 -.00003229  00000-0 -26292-3 0  9999,2 55272  70.0017 101.2982 0003232 266.5222  93.5568 14.98331901 83855,6950.187,96.107,574.298,569.806,0.0
55272.0,STARLINK-5310,PAYLOAD,2024-07-24 03:24:34,14.98332858,0.0003013,70.0017,100.7921,267.116,92.9655,-0.00018523,-2.303e-05,0.0,0 STARLINK-5310,1 55272U 23010D   24206.14206152 -.00002303  00000-0 -18523-3 0  9994,2 55272  70.0017 100.7921 0003013 267.1160  92.9655 14.98332858 83882,6950.184,96.107,574.143,569.955,0.0
55272.0,STARLINK-5310,PAYLOAD,2024-07-24 22:38:10,14.98338231,0.0003448,70.0006,98.7723,262.6464,97.4303,7.3589e-05,7.85e-06,0.0,0 STARLINK-5310,1 55272U 23010D   24206.94317728  .00000785  00000-0  73589-4 0  9998,2 55272  70.0006  98.7723 0003448 262.6464  97.4303 14.98338231 84001,6950.167,96.106,574.429,569.636,0.0
55272.0,STARLINK-5310,PAYLOAD,2024-07-25 03:26:34,14.98343843,0.0003302,70.0009,98.2665,263.5902,96.4881,0.00030331,3.529e-05,0.0,0 STARLINK-5310,1 55272U 23010D   24207.14345488  .00003529  00000-0  30331-3 0  9991,2 55272  70.0009  98.2665 0003302 263.5902  96.4881 14.98343843 83723,6950.15,96.106,574.31,569.72,0.0
55272.0,STARLINK-5310,PAYLOAD,2024-07-25 22:40:11,14.98332134,0.0002135,70.003,96.2479,267.0879,93.0035,0.00021217,2.44e-05,0.0,0 STARLINK-5310,1 55272U 23010D   24207.94458281  .00002440  00000-0  21217-3 0  9999,2 55272  70.0030  96.2479 0002135 267.0879  93.0035 14.98332134 84156,6950.186,96.107,573.535,570.567,0.0
55272.0,STARLINK-5310,PAYLOAD,2024-07-26 03:28:35,14.98332492,0.0003054,70.001,95.7417,261.1476,98.9337,0.0002063,2.37e-05,0.0,0 STARLINK-5310,1 55272U 23010D   24208.14486045  .00002370  00000-0  20630-3 0  9991,2 55272  70.0010  95.7417 0003054 261.1476  98.9337 14.98332492 83873,6950.185,96.107,574.173,569.928,0.0
55272.0,STARLINK-5310,PAYLOAD,2024-07-26 09:53:08,14.98333877,0.0002769,70.0014,95.0694,270.6318,89.4524,0.00016365,1.86e-05,0.0,0 STARLINK-5310,1 55272U 23010D   24208.41190089  .00001860  00000-0  16365-3 0  9994,2 55272  70.0014  95.0694 0002769 270.6318  89.4524 14.98333877 84220,6950.181,96.107,573.97,570.121,0.0
55272.0,STARLINK-5310,PAYLOAD,2024-07-27 22:44:13,14.98334456,0.0003373,70.0003,91.197,268.6676,91.4096,-5.8042e-05,-7.86e-06,0.0,0 STARLINK-5310,1 55272U 23010D   24209.94737642 -.00000786  00000-0 -58042-4 0  9992,2 55272  70.0003  91.1970 0003373 268.6676  91.4096 14.98334456 84454,6950.179,96.107,574.388,569.7,0.0
55272.0,STARLINK-5310,PAYLOAD,2024-07-28 01:56:29,14.98327127,0.0003088,70.0008,90.8602,269.6478,90.4327,-5.4906e-05,-7.48e-06,0.0,0 STARLINK-5310,1 55272U 23010D   24210.08090076 -.00000748  00000-0 -54906-4 0  9995,2 55272  70.0008  90.8602 0003088 269.6478  90.4327 14.98327127 84162,6950.202,96.107,574.213,569.921,0.0
55272.0,STARLINK-5310,PAYLOAD,2024-07-28 22:46:14,14.98328628,0.0003081,69.9998,88.6747,269.3741,90.7065,0.00018817,2.153e-05,0.0,0 STARLINK-5310,1 55272U 23010D   24210.94877786  .00002153  00000-0  18817-3 0  9991,2 55272  69.9998  88.6747 0003081 269.3741  90.7065 14.98328628 84603,6950.197,96.107,574.203,569.921,0.0
55272.0,STARLINK-5310,PAYLOAD,2024-07-29 01:58:30,14.98330552,0.0002957,69.9999,88.338,268.6406,91.4414,0.00022759,2.624e-05,0.0,0 STARLINK-5310,1 55272U 23010D   24211.08229645  .00002624  00000-0  22759-3 0  9995,2 55272  69.9999  88.3380 0002957 268.6406  91.4414 14.98330552 84318,6950.191,96.107,574.111,570.001,0.0
55272.0,STARLINK-5310,PAYLOAD,2024-07-29 14:47:35,14.98325501,0.0002734,70.0004,86.993,263.4938,96.591,0.00016433,1.868e-05,0.0,0 STARLINK-5310,1 55272U 23010D   24211.61638346  .00001868  00000-0  16433-3 0  9997,2 55272  70.0004  86.9930 0002734 263.4938  96.5910 14.98325501 84707,6950.207,96.107,573.972,570.172,0.0
55272.0,STARLINK-5310,PAYLOAD,2024-07-29 21:12:08,14.98322745,0.0002813,70.0001,86.3187,266.6603,93.4234,0.00011765,1.311e-05,0.0,0 STARLINK-5310,1 55272U 23010D   24211.88342771  .00001311  00000-0  11765-3 0  9996,2 55272  70.0001  86.3187 0002813 266.6603  93.4234 14.98322745 84436,6950.215,96.107,574.035,570.125,0.0
55272.0,STARLINK-5310,PAYLOAD,2024-07-29 22:48:16,14.98323121,0.0002819,70.0001,86.1498,268.5326,91.551,0.00012176,1.36e-05,0.0,0 STARLINK-5310,1 55272U 23010D   24211.95018785  .00001360  00000-0  12176-3 0  9990,2 55272  70.0001  86.1498 0002819 268.5326  91.5510 14.98323121 84758,6950.214,96.107,574.038,570.12,0.0
55272.0,STARLINK-5310,PAYLOAD,2024-07-30 08:25:04,14.98332845,0.0002816,70.0,85.1397,268.9994,91.0843,0.00016352,1.859e-05,0.0,0 STARLINK-5310,1 55272U 23010D   24212.35074206  .00001859  00000-0  16352-3 0  9998,2 55272  70.0000  85.1397 0002816 268.9994  91.0843 14.98332845 84506,6950.184,96.107,574.006,570.092,0.0
55272.0,STARLINK-5310,PAYLOAD,2024-07-30 14:49:35,14.98343017,0.0003029,69.9994,84.4652,272.3456,87.7356,0.00018966,2.171e-05,0.0,0 STARLINK-5310,1 55272U 23010D   24212.61777451  .00002171  00000-0  18966-3 0  9990,2 55272  69.9994  84.4652 0003029 272.3456  87.7356 14.98343017 84852,6950.153,96.106,574.123,569.912,0.0
55272.0,STARLINK-5310,PAYLOAD,2024-07-30 22:50:15,14.98349603,0.0003097,69.999,83.6235,271.8242,88.2563,0.0002661,3.085e-05,0.0,0 STARLINK-5310,1 55272U 23010D   24212.95156743  .00003085  00000-0  26610-3 0  9992,2 55272  69.9990  83.6235 0003097 271.8242  88.2563 14.98349603 84907,6950.132,96.106,574.15,569.845,0.0
55272.0,STARLINK-5310,PAYLOAD,2024-07-31 08:27:03,14.98351491,0.0002744,70.002,82.612,278.6553,81.4295,-0.00026999,-3.315e-05,0.0,0 STARLINK-5310,1 55272U 23010D   24213.35212695 -.00003315  00000-0 -26999-3 0  9994,2 55272  70.0020  82.6120 0002744 278.6553  81.4295 14.98351491 84651,6950.126,96.106,573.899,570.084,0.0
